0 FENGYUN 1C DEB
1 32213U 99025CVK 13278.23667239  .00000411  00000-0  28396-3 0  1680
2 32213 099.2134 283.2869 0183079 193.1845 165.1825 13.96959271315759
0 FENGYUN 1C DEB
1 32213U 99025CVK 13282.24788501  .00000375  00000-0  26129-3 0  1694
2 32213 099.2134 287.3070 0183074 182.2313 177.7566 13.96959636316311
0 FENGYUN 1C DEB
1 32213U 99025CVK 13288.26433102  .00000274  00000-0  19812-3 0  1707
2 32213 099.2079 293.3238 0184133 165.2657 195.3532 13.96962590317156
